[{"OBJECT_NAME":"STARLINK-4259","OBJECT_ID":"2022-076B","EPOCH":"2026-03-09T10:04:33.254112","MEAN_MOTION":15.08837383,"ECCENTRICITY":0.00012683,"INCLINATION":53.2166,"RA_OF_ASC_NODE":105.3331,"ARG_OF_PERICENTER":85.0926,"MEAN_ANOMALY":275.0211,"EPHEMERIS_TYPE":0,"CLASSIFICATION_TYPE":"U","NORAD_CAT_ID":52987,"ELEMENT_SET_NO":999,"REV_AT_EPOCH":20266,"BSTAR":6.4868045e-5,"MEAN_MOTION_DOT":7.45e-6,"MEAN_MOTION_DDOT":0},{"OBJECT_NAME":"CZ-6A DEB","OBJECT_ID":"2024-140YT","EPOCH":"2026-03-09T15:08:50.355168","MEAN_MOTION":14.80324244,"ECCENTRICITY":0.0130576,"INCLINATION":89.1165,"RA_OF_ASC_NODE":289.1796,"ARG_OF_PERICENTER":182.674,"MEAN_ANOMALY":177.3803,"EPHEMERIS_TYPE":0,"CLASSIFICATION_TYPE":"U","NORAD_CAT_ID":61426,"ELEMENT_SET_NO":999,"REV_AT_EPOCH":8306,"BSTAR":0.0013152,"MEAN_MOTION_DOT":0.00011629,"MEAN_MOTION_DDOT":0}]
